ONEWEB-0403             
1 50483U 21132Q   24269.79712478  .00000066  00000+0  13393-3 0  9990
2 50483  87.9047 100.7348 0001517  85.4517 274.6788 13.18689352138644
ONEWEB-0404             
1 50484U 21132R   24270.41723096  .00000505  00000+0  13904-2 0  9995
2 50484  87.8955 146.3037 0001606  62.7311 297.3981 13.11415713134556
ONEWEB-0405             
1 50485U 21132S   24270.49583122  .00000095  00000+0  20840-3 0  9990
2 50485  87.9050 100.5848 0001377  97.6089 262.5200 13.18683067140427
ONEWEB-0406             
1 50486U 21132T   24270.02951222  .00000111  00000+0  24985-3 0  9993
2 50486  87.9054 100.6919 0001964  65.8506 294.2831 13.18684579139996
ONEWEB-0407             
1 50487U 21132U   24269.79555134  .00000098  00000+0  21599-3 0  9990
2 50487  87.9052 100.7361 0001457  87.5744 272.5555 13.18687683138618
ONEWEB-0409             
1 50488U 21132V   24269.95775361  .00000565  00000+0  15586-2 0  9992
2 50488  87.8948 146.3826 0001883  65.1344 294.9979 13.11417693133118
ONEWEB-0412             
1 50489U 21132W   24270.46738068  .00000064  00000+0  13027-3 0  9997
2 50489  87.9056 100.6062 0001355 100.9837 259.1447 13.18687540140077
ONEWEB-0413             
1 50490U 21132X   24270.09273567  .00000101  00000+0  22286-3 0  9995
2 50490  87.9056 100.6937 0001570 100.6642 259.4667 13.18688206139974
